NORAD_CAT_ID,OBJECT_NAME,OBJECT_TYPE,EPOCH,MEAN_MOTION,ECCENTRICITY,INCLINATION,RA_OF_ASC_NODE,ARG_OF_PERICENTER,MEAN_ANOMALY,BSTAR,MEAN_MOTION_DOT,MEAN_MOTION_DDOT,TLE_LINE0,TLE_LINE1,TLE_LINE2,SEMIMAJOR_AXIS,PERIOD,APOGEE,PERIGEE,DECAYED
53007.0,STARLINK-4215,PAYLOAD,2023-11-07 17:53:27,15.08811865,0.0001485,53.2173,323.1372,84.6506,275.4655,-0.00010636,-1.979e-05,0.0,0 STARLINK-4215,1 53007U 22076X   23311.74545169 -.00001979  00000-0 -10636-3 0  9990,2 53007  53.2173 323.1372 0001485  84.6506 275.4655 15.08811865 74554,6917.966,95.439,540.859,538.804,0.0
53007.0,STARLINK-4215,PAYLOAD,2023-11-08 08:11:54,15.088502,0.0001633,53.217,320.4643,84.8388,275.279,0.00066616,0.00010333,0.0,0 STARLINK-4215,1 53007U 22076X   23312.34160381  .00010333  00000-0  66616-3 0  9997,2 53007  53.2170 320.4643 0001633  84.8388 275.2790 15.08850200 74641,6917.849,95.437,540.844,538.585,0.0
53007.0,STARLINK-4215,PAYLOAD,2023-11-08 17:44:13,15.08850739,0.0001313,53.2168,318.6825,101.5647,258.5493,0.00071097,0.00011049,0.0,0 STARLINK-4215,1 53007U 22076X   23312.73904021  .00011049  00000-0  71097-3 0  9991,2 53007  53.2168 318.6825 0001313 101.5647 258.5493 15.08850739 74235,6917.848,95.437,540.621,538.804,0.0
53007.0,STARLINK-4215,PAYLOAD,2023-11-09 09:38:03,15.08861286,0.0001285,53.2168,315.7054,97.7975,262.3163,0.00071716,0.00011151,0.0,0 STARLINK-4215,1 53007U 22076X   23313.40143181  .00011151  00000-0  71716-3 0  9990,2 53007  53.2168 315.7054 0001285  97.7975 262.3163 15.08861286 74804,6917.815,95.436,540.569,538.791,0.0
53007.0,STARLINK-4215,PAYLOAD,2023-11-09 17:34:59,15.08849231,0.0001666,53.2178,314.2161,80.5386,279.5794,0.0002192,3.203e-05,0.0,0 STARLINK-4215,1 53007U 22076X   23313.73263646  .00003203  00000-0  21920-3 0  9996,2 53007  53.2178 314.2161 0001666  80.5386 279.5794 15.08849231 74858,6917.852,95.437,540.87,538.565,0.0
53007.0,STARLINK-4215,PAYLOAD,2023-11-10 06:18:04,15.08856814,0.00015,53.2168,311.8386,88.4944,271.622,-8.0619e-05,-1.571e-05,0.0,0 STARLINK-4215,1 53007U 22076X   23314.26254688 -.00001571  00000-0 -80619-4 0  9990,2 53007  53.2168 311.8386 0001500  88.4944 271.6220 15.08856814 74462,6917.829,95.436,540.732,538.656,0.0
53007.0,STARLINK-4215,PAYLOAD,2023-11-10 17:25:45,15.08852638,0.0001335,53.2163,309.7574,100.2833,259.831,-7.6854e-05,-1.511e-05,0.0,0 STARLINK-4215,1 53007U 22076X   23314.72622504 -.00001511  00000-0 -76854-4 0  9997,2 53007  53.2163 309.7574 0001335 100.2833 259.8310 15.08852638 74534,6917.842,95.437,540.63,538.783,0.0
53007.0,STARLINK-4215,PAYLOAD,2023-11-11 02:58:04,15.08844662,0.000156,53.2167,307.9733,94.8051,265.3119,-5.377e-05,-1.144e-05,0.0,0 STARLINK-4215,1 53007U 22076X   23315.12366781 -.00001144  00000-0 -53770-4 0  9998,2 53007  53.2167 307.9733 0001560  94.8051 265.3119 15.08844662 75061,6917.866,95.437,540.81,538.652,0.0
53007.0,STARLINK-4215,PAYLOAD,2023-11-11 06:08:50,15.08849352,0.0001612,53.2168,307.3776,98.6185,261.499,-7.6952e-05,-1.513e-05,0.0,0 STARLINK-4215,1 53007U 22076X   23315.25614538 -.00001513  00000-0 -76952-4 0  9995,2 53007  53.2168 307.3776 0001612  98.6185 261.4990 15.08849352 74616,6917.852,95.437,540.832,538.602,0.0
53007.0,STARLINK-4215,PAYLOAD,2023-11-12 02:48:54,15.08778894,0.0001499,53.2176,303.5121,111.0181,249.0972,0.00097884,0.00015299,0.0,0 STARLINK-4215,1 53007U 22076X   23316.11729731  .00015299  00000-0  97884-3 0  9993,2 53007  53.2176 303.5121 0001499 111.0181 249.0972 15.08778894 75217,6918.067,95.441,540.969,538.895,0.0
53007.0,STARLINK-4215,PAYLOAD,2023-11-12 05:59:38,15.08838081,0.0001729,53.2176,302.9174,100.2759,259.8428,6.4681e-05,7.41e-06,0.0,0 STARLINK-4215,1 53007U 22076X   23316.24975264  .00000741  00000-0  64681-4 0  9997,2 53007  53.2176 302.9174 0001729 100.2759 259.8428 15.08838081 75237,6917.886,95.438,540.947,538.555,0.0
53007.0,STARLINK-4215,PAYLOAD,2023-11-13 09:01:11,15.08850504,0.0001589,53.2173,297.8629,94.1466,265.9707,0.00015878,2.241e-05,0.0,0 STARLINK-4215,1 53007U 22076X   23317.37582382  .00002241  00000-0  15878-3 0  9997,2 53007  53.2173 297.8629 0001589  94.1466 265.9707 15.08850504 75402,6917.848,95.437,540.813,538.614,0.0
53007.0,STARLINK-4215,PAYLOAD,2023-11-13 15:22:44,15.08842898,0.0001562,53.2168,296.6705,89.7025,270.4146,7.2477e-05,8.66e-06,0.0,0 STARLINK-4215,1 53007U 22076X   23317.64079052  .00000866  00000-0  72477-4 0  9992,2 53007  53.2168 296.6705 0001562  89.7025 270.4146 15.08842898 75449,6917.872,95.437,540.817,538.656,0.0
53007.0,STARLINK-4215,PAYLOAD,2023-11-13 21:44:17,15.08835015,0.0001518,53.2179,295.4844,93.8163,266.3003,7.761e-05,9.47e-06,0.0,0 STARLINK-4215,1 53007U 22076X   23317.90575707  .00000947  00000-0  77610-4 0  9993,2 53007  53.2179 295.4844 0001518  93.8163 266.3003 15.08835015 75014,6917.896,95.438,540.811,538.71,0.0
53007.0,STARLINK-4215,PAYLOAD,2023-11-14 05:41:12,15.08845848,0.0001633,53.2172,293.9972,95.9504,264.1674,0.00016599,2.355e-05,0.0,0 STARLINK-4215,1 53007U 22076X   23318.23694989  .00002355  00000-0  16599-3 0  9997,2 53007  53.2172 293.9972 0001633  95.9504 264.1674 15.08845848 75062,6917.863,95.437,540.857,538.598,0.0
53007.0,STARLINK-4215,PAYLOAD,2023-11-14 15:13:31,15.0884162,0.0001603,53.217,292.2132,94.2547,265.8629,0.00010499,1.383e-05,0.0,0 STARLINK-4215,1 53007U 22076X   23318.63439213  .00001383  00000-0  10499-3 0  9991,2 53007  53.2170 292.2132 0001603  94.2547 265.8629 15.08841620 75125,6917.875,95.437,540.849,538.632,0.0
53007.0,STARLINK-4215,PAYLOAD,2023-11-15 03:56:37,15.08833437,0.0001806,53.2183,289.8368,104.3033,255.816,-0.0001063,-1.979e-05,0.0,0 STARLINK-4215,1 53007U 22076X   23319.16431743 -.00001979  00000-0 -10630-3 0  9990,2 53007  53.2183 289.8368 0001806 104.3033 255.8160 15.08833437 75676,6917.9,95.438,541.015,538.516,0.0
53007.0,STARLINK-4215,PAYLOAD,2023-11-15 07:07:23,15.08835726,0.0001758,53.2192,289.2422,100.1554,259.9637,-1.2298e-05,-4.84e-06,0.0,0 STARLINK-4215,1 53007U 22076X   23319.29680154 -.00000484  00000-0 -12298-4 0  9999,2 53007  53.2192 289.2422 0001758 100.1554 259.9637 15.08835726 75227,6917.893,95.438,540.975,538.542,0.0
53007.0,STARLINK-4215,PAYLOAD,2023-11-15 15:04:19,15.0883741,0.0001694,53.218,287.7493,83.7999,276.3186,1.6835e-05,-2e-07,0.0,0 STARLINK-4215,1 53007U 22076X   23319.62800031 -.00000020  00000-0  16835-4 0  9990,2 53007  53.2180 287.7493 0001694  83.7999 276.3186 15.08837410 75272,6917.888,95.438,540.925,538.581,0.0
53007.0,STARLINK-4215,PAYLOAD,2023-11-16 06:58:10,15.08842023,0.0001598,53.2175,284.7781,91.6921,268.4255,7.745e-05,9.45e-06,0.0,0 STARLINK-4215,1 53007U 22076X   23320.29039863  .00000945  00000-0  77450-4 0  9997,2 53007  53.2175 284.7781 0001598  91.6921 268.4255 15.08842023 75847,6917.874,95.437,540.845,538.634,0.0
53007.0,STARLINK-4215,PAYLOAD,2023-11-16 21:16:39,15.08827164,0.0001692,53.2166,282.1012,88.6264,271.4922,0.00035173,5.312e-05,0.0,0 STARLINK-4215,1 53007U 22076X   23320.88656777  .00005312  00000-0  35173-3 0  9999,2 53007  53.2166 282.1012 0001692  88.6264 271.4922 15.08827164 75469,6917.92,95.438,540.955,538.614,0.0
53007.0,STARLINK-4215,PAYLOAD,2023-11-17 06:48:57,15.08842167,0.0001662,53.2173,280.319,84.017,276.1012,0.00015369,2.159e-05,0.0,0 STARLINK-4215,1 53007U 22076X   23321.28400023  .00002159  00000-0  15369-3 0  9996,2 53007  53.2173 280.3190 0001662  84.0170 276.1012 15.08842167 75997,6917.874,95.437,540.889,538.589,0.0
53007.0,STARLINK-4215,PAYLOAD,2023-11-17 14:45:53,15.08840526,0.0001592,53.2172,278.8322,89.5631,270.5544,0.00011008,1.464e-05,0.0,0 STARLINK-4215,1 53007U 22076X   23321.61520190  .00001464  00000-0  11008-3 0  9995,2 53007  53.2172 278.8322 0001592  89.5631 270.5544 15.08840526 75578,6917.879,95.438,540.845,538.642,0.0
53007.0,STARLINK-4215,PAYLOAD,2023-11-18 03:28:58,15.08846763,0.0001586,53.217,276.4536,92.4371,267.6802,3.7206e-05,3.04e-06,0.0,0 STARLINK-4215,1 53007U 22076X   23322.14511974  .00000304  00000-0  37206-4 0  9995,2 53007  53.2170 276.4536 0001586  92.4371 267.6802 15.08846763 75656,6917.86,95.437,540.822,538.628,0.0
53007.0,STARLINK-4215,PAYLOAD,2023-11-18 14:36:40,15.08840128,0.0001791,53.2178,274.3728,80.5537,279.5657,6.7496e-05,7.86e-06,0.0,0 STARLINK-4215,1 53007U 22076X   23322.60880436  .00000786  00000-0  67496-4 0  9996,2 53007  53.2178 274.3728 0001791  80.5537 279.5657 15.08840128 76193,6917.88,95.438,540.984,538.506,0.0
53007.0,STARLINK-4215,PAYLOAD,2023-11-18 20:58:13,15.08841493,0.0001667,53.2172,273.1827,79.8164,280.3016,5.2091e-05,5.41e-06,0.0,0 STARLINK-4215,1 53007U 22076X   23322.87376277  .00000541  00000-0  52091-4 0  9992,2 53007  53.2172 273.1827 0001667  79.8164 280.3016 15.08841493 75760,6917.876,95.437,540.894,538.588,0.0
53007.0,STARLINK-4215,PAYLOAD,2023-11-19 03:19:45,15.08846836,0.0001798,53.2176,271.992,94.9868,265.1329,-5.6777e-05,-1.192e-05,0.0,0 STARLINK-4215,1 53007U 22076X   23323.13872076 -.00001192  00000-0 -56777-4 0  9990,2 53007  53.2176 271.9920 0001798  94.9868 265.1329 15.08846836 75807,6917.859,95.437,540.968,538.481,0.0
53007.0,STARLINK-4215,PAYLOAD,2023-11-19 20:48:59,15.08844416,0.000161,53.2174,268.7206,92.5667,267.5509,7.421e-05,8.93e-06,0.0,0 STARLINK-4215,1 53007U 22076X   23323.86735777  .00000893  00000-0  74210-4 0  9993,2 53007  53.2174 268.7206 0001610  92.5667 267.5509 15.08844416 75910,6917.867,95.437,540.846,538.618,0.0
53007.0,STARLINK-4215,PAYLOAD,2023-11-20 03:10:31,15.08849804,0.0001549,53.217,267.5306,96.4462,263.6707,0.00011318,1.514e-05,0.0,0 STARLINK-4215,1 53007U 22076X   23324.13231206  .00001514  00000-0  11318-3 0  9992,2 53007  53.2170 267.5306 0001549  96.4462 263.6707 15.08849804 76421,6917.85,95.437,540.787,538.644,0.0
53007.0,STARLINK-4215,PAYLOAD,2023-11-20 04:45:54,15.08850101,0.0001587,53.2174,267.2335,96.8632,263.254,0.00014777,2.065e-05,0.0,0 STARLINK-4215,1 53007U 22076X   23324.19855161  .00002065  00000-0  14777-3 0  9994,2 53007  53.2174 267.2335 0001587  96.8632 263.2540 15.08850101 75960,6917.85,95.437,540.812,538.617,0.0
